[{"OBJECT_NAME":"DROID.002","OBJECT_ID":"2025-052P","EPOCH":"2026-03-09T23:25:00.743520","MEAN_MOTION":15.22033904,"ECCENTRICITY":0.00055943,"INCLINATION":97.4049,"RA_OF_ASC_NODE":323.345,"ARG_OF_PERICENTER":112.4531,"MEAN_ANOMALY":247.7298,"EPHEMERIS_TYPE":0,"CLASSIFICATION_TYPE":"U","NORAD_CAT_ID":63223,"ELEMENT_SET_NO":999,"REV_AT_EPOCH":5477,"BSTAR":0.00036874909,"MEAN_MOTION_DOT":8.365e-5,"MEAN_MOTION_DDOT":0},{"OBJECT_NAME":"CZ-2C R\/B","OBJECT_ID":"2024-203E","EPOCH":"2026-03-09T21:58:29.775360","MEAN_MOTION":15.29569733,"ECCENTRICITY":0.00782655,"INCLINATION":97.3142,"RA_OF_ASC_NODE":134.7565,"ARG_OF_PERICENTER":232.0261,"MEAN_ANOMALY":127.3893,"EPHEMERIS_TYPE":0,"CLASSIFICATION_TYPE":"U","NORAD_CAT_ID":61873,"ELEMENT_SET_NO":999,"REV_AT_EPOCH":7395,"BSTAR":0.00041889655,"MEAN_MOTION_DOT":0.00013106,"MEAN_MOTION_DDOT":0}]
